SKYSAT-A                
1 39418U 13066C   26074.06088448  .00003746  00000+0  21849-3 0  9994
2 39418  97.3946 126.4376 0019940 280.5132  79.3852 15.12397779674257
SKYSAT-B                
1 40072U 14037D   26074.11008903  .00001762  00000+0  19984-3 0  9998
2 40072  98.3732  27.7888 0004679 211.9301 148.1630 14.87750249631976
SKYSAT-C1               
1 41601U 16040C   26074.04786429  .00012721  00000+0  38094-3 0  9991
2 41601  96.9695 110.9210 0003112  42.5746 317.5739 15.34636514543428
SKYSAT-C4               
1 41771U 16058B   26074.02946998  .00021347  00000+0  44497-3 0  9993
2 41771  96.9287  99.8938 0001315 133.0135 227.1226 15.45585506530919
SKYSAT-C5               
1 41772U 16058C   26074.04335624  .00011049  00000+0  33679-3 0  9992
2 41772  97.0611 118.8770 0000392 104.2271 255.9017 15.34116063529319
SKYSAT-C2               
1 41773U 16058D   26074.03723064  .00015767  00000+0  39848-3 0  9996
2 41773  97.0276  99.7754 0004647  56.7867 303.3825 15.39862406530552
SKYSAT-C3               
1 41774U 16058E   26074.05109964  .00026493  00000+0  49729-3 0  9993
2 41774  96.9175 108.6960 0001727 112.1629 247.9806 15.48591336531528
SKYSAT-C11              
1 42987U 17068A   26074.25943336  .00036462  00000+0  58857-3 0  9992
2 42987  97.4205 219.4304 0000404  84.4395 275.6904 15.52809023468649
SKYSAT-C10              
1 42988U 17068B   26074.28096796  .00012728  00000+0  40367-3 0  9991
2 42988  97.4339 210.4195 0001007  95.5217 264.6140 15.32829839467962
SKYSAT-C9               
1 42989U 17068C   26074.17475464  .00018158  00000+0  46979-3 0  9991
2 42989  97.4264 210.3962 0009932 114.8778 245.3501 15.39086726468283
SKYSAT-C8               
1 42990U 17068D   26073.93177568  .00015408  00000+0  45685-3 0  9998
2 42990  97.4356 209.5255 0001268  97.5862 262.5526 15.34925793467847
SKYSAT-C7               
1 42991U 17068E   26074.11761038  .00015123  00000+0  44874-3 0  9994
2 42991  97.4369 210.6959 0007269  87.6667 272.5409 15.34883100467932
SKYSAT-C6               
1 42992U 17068F   26074.12183471  .00013680  00000+0  43610-3 0  9998
2 42992  97.4403 210.9694 0003732 114.7739 245.3892 15.32643579467907
SKYSAT-C12              
1 43797U 18099AR  26074.32603422  .00018088  00000+0  37409-3 0  9998
2 43797  96.9375 101.4927 0005969 124.3795 235.8020 15.45829991407346
SKYSAT-C13              
1 43802U 18099AW  26074.05783075  .00104314  00000+0  61657-3 0  9998
2 43802  96.9400 121.7084 0004719 183.0330 177.0910 15.77806999408018
FLOCK 4Q-16             
1 58271U 23174R   26074.19627227  .00028882  00000+0  61044-3 0  9990
2 58271  97.3857 160.4184 0008098 141.7254 218.4571 15.45092887131043
