[{"OBJECT_NAME":"SKYSAT-A","OBJECT_ID":"2013-066C","EPOCH":"2026-03-15T01:27:40.419072","MEAN_MOTION":15.12397779,"ECCENTRICITY":0.00199409,"INCLINATION":97.3946,"RA_OF_ASC_NODE":126.4376,"ARG_OF_PERICENTER":280.5132,"MEAN_ANOMALY":79.3852,"EPHEMERIS_TYPE":0,"CLASSIFICATION_TYPE":"U","NORAD_CAT_ID":39418,"ELEMENT_SET_NO":999,"REV_AT_EPOCH":67425,"BSTAR":0.00021849424,"MEAN_MOTION_DOT":3.746e-5,"MEAN_MOTION_DDOT":0},{"OBJECT_NAME":"SKYSAT-B","OBJECT_ID":"2014-037D","EPOCH":"2026-03-15T02:38:31.692192","MEAN_MOTION":14.87750249,"ECCENTRICITY":0.00046791,"INCLINATION":98.3732,"RA_OF_ASC_NODE":27.7888,"ARG_OF_PERICENTER":211.9301,"MEAN_ANOMALY":148.163,"EPHEMERIS_TYPE":0,"CLASSIFICATION_TYPE":"U","NORAD_CAT_ID":40072,"ELEMENT_SET_NO":999,"REV_AT_EPOCH":63197,"BSTAR":0.00019984132,"MEAN_MOTION_DOT":1.762e-5,"MEAN_MOTION_DDOT":0},{"OBJECT_NAME":"SKYSAT-C1","OBJECT_ID":"2016-040C","EPOCH":"2026-03-15T01:08:55.474656","MEAN_MOTION":15.34636514,"ECCENTRICITY":0.00031123,"INCLINATION":96.9695,"RA_OF_ASC_NODE":110.921,"ARG_OF_PERICENTER":42.5746,"MEAN_ANOMALY":317.5739,"EPHEMERIS_TYPE":0,"CLASSIFICATION_TYPE":"U","NORAD_CAT_ID":41601,"ELEMENT_SET_NO":999,"REV_AT_EPOCH":54342,"BSTAR":0.00038093542,"MEAN_MOTION_DOT":0.00012721,"MEAN_MOTION_DDOT":0},{"OBJECT_NAME":"SKYSAT-C4","OBJECT_ID":"2016-058B","EPOCH":"2026-03-15T00:42:26.206272","MEAN_MOTION":15.45585506,"ECCENTRICITY":0.00013153,"INCLINATION":96.9287,"RA_OF_ASC_NODE":99.8938,"ARG_OF_PERICENTER":133.0135,"MEAN_ANOMALY":227.1226,"EPHEMERIS_TYPE":0,"CLASSIFICATION_TYPE":"U","NORAD_CAT_ID":41771,"ELEMENT_SET_NO":999,"REV_AT_EPOCH":53091,"BSTAR":0.00044497332,"MEAN_MOTION_DOT":0.00021347,"MEAN_MOTION_DDOT":0},{"OBJECT_NAME":"SKYSAT-C5","OBJECT_ID":"2016-058C","EPOCH":"2026-03-15T01:02:25.979136","MEAN_MOTION":15.34116063,"ECCENTRICITY":3.92e-5,"INCLINATION":97.0611,"RA_OF_ASC_NODE":118.877,"ARG_OF_PERICENTER":104.2271,"MEAN_ANOMALY":255.9017,"EPHEMERIS_TYPE":0,"CLASSIFICATION_TYPE":"U","NORAD_CAT_ID":41772,"ELEMENT_SET_NO":999,"REV_AT_EPOCH":52931,"BSTAR":0.00033678735,"MEAN_MOTION_DOT":0.00011049,"MEAN_MOTION_DDOT":0},{"OBJECT_NAME":"SKYSAT-C2","OBJECT_ID":"2016-058D","EPOCH":"2026-03-15T00:53:36.727296","MEAN_MOTION":15.39862406,"ECCENTRICITY":0.00046473,"INCLINATION":97.0276,"RA_OF_ASC_NODE":99.7754,"ARG_OF_PERICENTER":56.7867,"MEAN_ANOMALY":303.3825,"EPHEMERIS_TYPE":0,"CLASSIFICATION_TYPE":"U","NORAD_CAT_ID":41773,"ELEMENT_SET_NO":999,"REV_AT_EPOCH":53055,"BSTAR":0.00039847961,"MEAN_MOTION_DOT":0.00015767,"MEAN_MOTION_DDOT":0},{"OBJECT_NAME":"SKYSAT-C3","OBJECT_ID":"2016-058E","EPOCH":"2026-03-15T01:13:35.008896","MEAN_MOTION":15.48591336,"ECCENTRICITY":0.00017279,"INCLINATION":96.9175,"RA_OF_ASC_NODE":108.696,"ARG_OF_PERICENTER":112.1629,"MEAN_ANOMALY":247.9806,"EPHEMERIS_TYPE":0,"CLASSIFICATION_TYPE":"U","NORAD_CAT_ID":41774,"ELEMENT_SET_NO":999,"REV_AT_EPOCH":53152,"BSTAR":0.00049728721,"MEAN_MOTION_DOT":0.00026493,"MEAN_MOTION_DDOT":0},{"OBJECT_NAME":"SKYSAT-C11","OBJECT_ID":"2017-068A","EPOCH":"2026-03-15T06:13:35.042304","MEAN_MOTION":15.52809023,"ECCENTRICITY":4.048e-5,"INCLINATION":97.4205,"RA_OF_ASC_NODE":219.4304,"ARG_OF_PERICENTER":84.4395,"MEAN_ANOMALY":275.6904,"EPHEMERIS_TYPE":0,"CLASSIFICATION_TYPE":"U","NORAD_CAT_ID":42987,"ELEMENT_SET_NO":999,"REV_AT_EPOCH":46864,"BSTAR":0.00058856619,"MEAN_MOTION_DOT":0.00036462,"MEAN_MOTION_DDOT":0},{"OBJECT_NAME":"SKYSAT-C10","OBJECT_ID":"2017-068B","EPOCH":"2026-03-15T06:44:35.631744","MEAN_MOTION":15.32829839,"ECCENTRICITY":0.00010078,"INCLINATION":97.4339,"RA_OF_ASC_NODE":210.4195,"ARG_OF_PERICENTER":95.5217,"MEAN_ANOMALY":264.614,"EPHEMERIS_TYPE":0,"CLASSIFICATION_TYPE":"U","NORAD_CAT_ID":42988,"ELEMENT_SET_NO":999,"REV_AT_EPOCH":46796,"BSTAR":0.00040367222,"MEAN_MOTION_DOT":0.00012728,"MEAN_MOTION_DDOT":0},{"OBJECT_NAME":"SKYSAT-C9","OBJECT_ID":"2017-068C","EPOCH":"2026-03-15T04:11:38.800896","MEAN_MOTION":15.39086726,"ECCENTRICITY":0.00099326,"INCLINATION":97.4264,"RA_OF_ASC_NODE":210.3962,"ARG_OF_PERICENTER":114.8778,"MEAN_ANOMALY":245.3501,"EPHEMERIS_TYPE":0,"CLASSIFICATION_TYPE":"U","NORAD_CAT_ID":42989,"ELEMENT_SET_NO":999,"REV_AT_EPOCH":46828,"BSTAR":0.00046979053,"MEAN_MOTION_DOT":0.00018158,"MEAN_MOTION_DDOT":0},{"OBJECT_NAME":"SKYSAT-C8","OBJECT_ID":"2017-068D","EPOCH":"2026-03-14T22:21:45.418752","MEAN_MOTION":15.34925793,"ECCENTRICITY":0.00012681,"INCLINATION":97.4356,"RA_OF_ASC_NODE":209.5255,"ARG_OF_PERICENTER":97.5862,"MEAN_ANOMALY":262.5526,"EPHEMERIS_TYPE":0,"CLASSIFICATION_TYPE":"U","NORAD_CAT_ID":42990,"ELEMENT_SET_NO":999,"REV_AT_EPOCH":46784,"BSTAR":0.00045684975,"MEAN_MOTION_DOT":0.00015408,"MEAN_MOTION_DDOT":0},{"OBJECT_NAME":"SKYSAT-C7","OBJECT_ID":"2017-068E","EPOCH":"2026-03-15T02:49:21.536832","MEAN_MOTION":15.348831,"ECCENTRICITY":0.00072694,"INCLINATION":97.4369,"RA_OF_ASC_NODE":210.6959,"ARG_OF_PERICENTER":87.6667,"MEAN_ANOMALY":272.5409,"EPHEMERIS_TYPE":0,"CLASSIFICATION_TYPE":"U","NORAD_CAT_ID":42991,"ELEMENT_SET_NO":999,"REV_AT_EPOCH":46793,"BSTAR":0.00044873963,"MEAN_MOTION_DOT":0.00015123,"MEAN_MOTION_DDOT":0},{"OBJECT_NAME":"SKYSAT-C6","OBJECT_ID":"2017-068F","EPOCH":"2026-03-15T02:55:26.518944","MEAN_MOTION":15.32643579,"ECCENTRICITY":0.00037322,"INCLINATION":97.4403,"RA_OF_ASC_NODE":210.9694,"ARG_OF_PERICENTER":114.7739,"MEAN_ANOMALY":245.3892,"EPHEMERIS_TYPE":0,"CLASSIFICATION_TYPE":"U","NORAD_CAT_ID":42992,"ELEMENT_SET_NO":999,"REV_AT_EPOCH":46790,"BSTAR":0.00043609955,"MEAN_MOTION_DOT":0.0001368,"MEAN_MOTION_DDOT":0},{"OBJECT_NAME":"SKYSAT-C12","OBJECT_ID":"2018-099AR","EPOCH":"2026-03-15T07:49:29.356608","MEAN_MOTION":15.45829991,"ECCENTRICITY":0.0005969,"INCLINATION":96.9375,"RA_OF_ASC_NODE":101.4927,"ARG_OF_PERICENTER":124.3795,"MEAN_ANOMALY":235.802,"EPHEMERIS_TYPE":0,"CLASSIFICATION_TYPE":"U","NORAD_CAT_ID":43797,"ELEMENT_SET_NO":999,"REV_AT_EPOCH":40734,"BSTAR":0.00037409455,"MEAN_MOTION_DOT":0.00018088,"MEAN_MOTION_DDOT":0},{"OBJECT_NAME":"SKYSAT-C13","OBJECT_ID":"2018-099AW","EPOCH":"2026-03-15T01:23:16.576800","MEAN_MOTION":15.77806999,"ECCENTRICITY":0.00047191,"INCLINATION":96.94,"RA_OF_ASC_NODE":121.7084,"ARG_OF_PERICENTER":183.033,"MEAN_ANOMALY":177.091,"EPHEMERIS_TYPE":0,"CLASSIFICATION_TYPE":"U","NORAD_CAT_ID":43802,"ELEMENT_SET_NO":999,"REV_AT_EPOCH":40801,"BSTAR":0.00061657189,"MEAN_MOTION_DOT":0.00104314,"MEAN_MOTION_DDOT":0},{"OBJECT_NAME":"FLOCK 4Q-16","OBJECT_ID":"2023-174R","EPOCH":"2026-03-15T04:42:37.924128","MEAN_MOTION":15.45092887,"ECCENTRICITY":0.00080988,"INCLINATION":97.3857,"RA_OF_ASC_NODE":160.4184,"ARG_OF_PERICENTER":141.7254,"MEAN_ANOMALY":218.4571,"EPHEMERIS_TYPE":0,"CLASSIFICATION_TYPE":"U","NORAD_CAT_ID":58271,"ELEMENT_SET_NO":999,"REV_AT_EPOCH":13104,"BSTAR":0.0006104388,"MEAN_MOTION_DOT":0.00028882,"MEAN_MOTION_DDOT":0}]
